{
  "version": "2.0",
  "lastUpdated": "2026-01-31",
  "description": "蒲郡市議会わかりやすビューア用の包括的な用語辞書DB",
  
  "councilMembers": [
    {"name": "来本健作", "reading": "くるもと けんさく", "faction": "蒲郡市政クラブ", "seatNumber": 1, "terms": 1, "variations": ["来本 健作", "くるもと", "来本"]},
    {"name": "大場康議", "reading": "おおば やすのり", "faction": "自由民主党・無所属の会", "seatNumber": 2, "terms": 3, "role": "議長", "variations": ["大場 康議", "おおば", "大場"]},
    {"name": "牧野泰広", "reading": "まきの やすひろ", "faction": "蒲郡自由クラブ", "seatNumber": 3, "terms": 3, "variations": ["牧野 泰広", "まきの", "牧野"]},
    {"name": "鈴木基夫", "reading": "すずき もとお", "faction": "自由民主党・無所属の会", "seatNumber": 4, "terms": 3, "variations": ["鈴木 基夫", "すずき", "鈴木"]},
    {"name": "太田哲也", "reading": "おおた てつや", "faction": "蒲郡市政クラブ", "seatNumber": 5, "terms": 2, "variations": ["太田 哲也", "おおた", "太田"]},
    {"name": "千賀充能", "reading": "せんが みつよし", "faction": "蒲郡自由クラブ", "seatNumber": 6, "terms": 3, "variations": ["千賀 充能", "せんが", "千賀"]},
    {"name": "大須賀林", "reading": "おおすが りん", "faction": "自由民主党・無所属の会", "seatNumber": 7, "terms": 2, "role": "監査委員", "variations": ["大須賀 林", "おおすが", "大須賀"]},
    {"name": "鈴木将浩", "reading": "すずき まさひろ", "faction": "自由民主党・無所属の会", "seatNumber": 8, "terms": 2, "variations": ["鈴木 将浩", "すずき", "鈴木"]},
    {"name": "青山義明", "reading": "あおやま よしあき", "faction": "自由民主党・無所属の会", "seatNumber": 9, "terms": 4, "variations": ["青山 義明", "あおやま", "青山"]},
    {"name": "日恵野佳代", "reading": "ひえの かよ", "faction": "日本共産党蒲郡市議団", "seatNumber": 10, "terms": 4, "variations": ["日恵野 佳代", "ひえの", "日恵野"]},
    {"name": "伊藤享佑", "reading": "いとう きょうすけ", "faction": "蒲郡市政クラブ", "seatNumber": 11, "terms": 2, "variations": ["伊藤 享佑", "いとう", "伊藤"]},
    {"name": "鈴木貴晶", "reading": "すずき たかあき", "faction": "公明党蒲郡市議団", "seatNumber": 12, "terms": 2, "variations": ["鈴木 貴晶", "すずき", "鈴木"]},
    {"name": "松本昌成", "reading": "まつもと まさなり", "faction": "蒲郡自由クラブ", "seatNumber": 13, "terms": 3, "variations": ["松本 昌成", "まつもと", "松本"]},
    {"name": "竹内滋泰", "reading": "たけうち しげやす", "faction": "公明党蒲郡市議団", "seatNumber": 14, "terms": 3, "variations": ["竹内 滋泰", "たけうち", "竹内"]},
    {"name": "尾崎広道", "reading": "おざき ひろみち", "faction": "蒲郡自由クラブ", "seatNumber": 15, "terms": 2, "variations": ["尾崎 広道", "おざき", "尾崎"]},
    {"name": "新実祥悟", "reading": "にいみ しょうご", "faction": "蒲郡市政クラブ", "seatNumber": 16, "terms": 1, "variations": ["新実 祥悟", "にいみ", "新実"]},
    {"name": "八田寿人", "reading": "はった ひさと", "faction": "自由民主党・無所属の会", "seatNumber": 17, "terms": 1, "variations": ["八田 寿人", "はった", "八田"]},
    {"name": "芦刈純奈", "reading": "あしかり じゅんな", "faction": "自由民主党・無所属の会", "seatNumber": 18, "terms": 1, "variations": ["芦刈 純奈", "あしかり", "芦刈"]},
    {"name": "中野香余", "reading": "なかの かよ", "faction": "自由民主党・無所属の会", "seatNumber": 19, "terms": 1, "variations": ["中野 香余", "なかの", "中野"]},
    {"name": "藤田裕喜", "reading": "ふじた ひろき", "faction": "自由民主党・無所属の会", "seatNumber": 20, "terms": 1, "role": "副議長", "variations": ["藤田 裕喜", "ふじた", "藤田"]}
  ],
  
  "districts": [
    {"name": "旭町", "reading": "あさひまち", "zipCode": "443-0045", "variations": ["旭"]},
    {"name": "新井形町", "reading": "あらいがたちょう", "zipCode": "443-0051", "variations": ["新井形", "あらいがた"]},
    {"name": "新井形町南", "reading": "あらいがたちょうみなみ", "zipCode": "443-0051", "variations": ["新井形南"]},
    {"name": "新井町", "reading": "あらいちょう", "zipCode": "443-0052", "variations": ["新井", "あらい"]},
    {"name": "新井町南", "reading": "あらいちょうみなみ", "zipCode": "443-0052", "variations": ["新井南"]},
    {"name": "一色町", "reading": "いしきちょう", "zipCode": "443-0101", "variations": ["一色", "いしき"]},
    {"name": "上本町", "reading": "うえほんまち", "zipCode": "443-0058", "variations": ["上本"]},
    {"name": "大塚町", "reading": "おおつかちょう", "zipCode": "443-0013", "variations": ["大塚", "おおつか"]},
    {"name": "海陽町", "reading": "かいようちょう", "zipCode": "443-0014", "variations": ["海陽"]},
    {"name": "鹿島町", "reading": "かしまちょう", "zipCode": "443-0037", "variations": ["鹿島", "かしま"]},
    {"name": "柏原町", "reading": "かしわばらちょう", "zipCode": "443-0008", "variations": ["柏原", "かしわばら"]},
    {"name": "形原町", "reading": "かたはらちょう", "zipCode": "443-0104", "variations": ["形原", "かたはら"]},
    {"name": "形原町春日浦", "reading": "かたはらちょうかすがうら", "zipCode": "443-0106", "variations": ["形原春日浦", "春日浦"]},
    {"name": "形原町北浜", "reading": "かたはらちょうきたはま", "zipCode": "443-0103", "variations": ["形原北浜", "北浜"]},
    {"name": "金平町", "reading": "かねひらちょう", "zipCode": "443-0102", "variations": ["金平", "かねひら"]},
    {"name": "蒲郡町", "reading": "がまごおりちょう", "zipCode": "443-0006", "variations": ["蒲郡", "がまごおり"]},
    {"name": "神ノ郷町", "reading": "かみのごうちょう", "zipCode": "443-0007", "variations": ["神ノ郷", "かみのごう"]},
    {"name": "五井町", "reading": "ごいちょう", "zipCode": "443-0003", "variations": ["五井", "ごい"]},
    {"name": "栄町", "reading": "さかえまち", "zipCode": "443-0035", "variations": ["栄", "さかえ"]},
    {"name": "坂本町", "reading": "さかもとちょう", "zipCode": "443-0001", "variations": ["坂本", "さかもと"]},
    {"name": "相楽町", "reading": "さがらちょう", "zipCode": "443-0012", "variations": ["相楽", "さがら"]},
    {"name": "神明町", "reading": "しんめいちょう", "zipCode": "443-0056", "variations": ["神明", "しんめい"]},
    {"name": "神明町東", "reading": "しんめいちょうひがし", "zipCode": "443-0056", "variations": ["神明東"]},
    {"name": "清田町", "reading": "せいだちょう", "zipCode": "443-0002", "variations": ["清田", "せいだ"]},
    {"name": "宝町", "reading": "たからまち", "zipCode": "443-0044", "variations": ["宝", "たから"]},
    {"name": "竹島町", "reading": "たけしまちょう", "zipCode": "443-0031", "variations": ["竹島", "たけしま"]},
    {"name": "竹谷町", "reading": "たけのやちょう", "zipCode": "443-0046", "variations": ["竹谷", "たけのや"]},
    {"name": "中央本町", "reading": "ちゅうおうほんまち", "zipCode": "443-0057", "variations": ["中央本"]},
    {"name": "豊岡町", "reading": "とよおかちょう", "zipCode": "443-0011", "variations": ["豊岡", "とよおか"]},
    {"name": "西浦町", "reading": "にしうらちょう", "zipCode": "443-0105", "variations": ["西浦", "にしうら"]},
    {"name": "西迫町", "reading": "にしはさまちょう", "zipCode": "443-0047", "variations": ["西迫", "にしはさま"]},
    {"name": "浜町", "reading": "はまちょう", "zipCode": "443-0036", "variations": ["浜", "はま"]},
    {"name": "平田町", "reading": "ひらたちょう", "zipCode": "443-0004", "variations": ["平田", "ひらた"]},
    {"name": "拾石町", "reading": "ひろいしちょう", "zipCode": "443-0038", "variations": ["拾石", "ひろいし"]},
    {"name": "府相町", "reading": "ふそうちょう", "zipCode": "443-0054", "variations": ["府相", "ふそう"]},
    {"name": "堀込町", "reading": "ほりごみちょう", "zipCode": "443-0053", "variations": ["堀込", "ほりごみ"]},
    {"name": "本町", "reading": "ほんまち", "zipCode": "443-0059", "variations": ["本"]},
    {"name": "本町東", "reading": "ほんまちひがし", "zipCode": "443-0059", "variations": ["本東"]},
    {"name": "松原町", "reading": "まつばらちょう", "zipCode": "443-0033", "variations": ["松原", "まつばら"]},
    {"name": "丸山町", "reading": "まるやまちょう", "zipCode": "443-0032", "variations": ["丸山", "まるやま"]},
    {"name": "水竹町", "reading": "みずたけちょう", "zipCode": "443-0005", "variations": ["水竹", "みずたけ"]},
    {"name": "緑町", "reading": "みどりまち", "zipCode": "443-0048", "variations": ["緑", "みどり"]},
    {"name": "港町", "reading": "みなとまち", "zipCode": "443-0034", "variations": ["港", "みなと"]},
    {"name": "三谷北通", "reading": "みやきたどおり", "zipCode": "443-0022", "variations": ["三谷北"]},
    {"name": "三谷町", "reading": "みやちょう", "zipCode": "443-0021", "variations": ["三谷", "みや"]},
    {"name": "宮成町", "reading": "みやなりちょう", "zipCode": "443-0041", "variations": ["宮成", "みやなり"]},
    {"name": "御幸町", "reading": "みゆきちょう", "zipCode": "443-0042", "variations": ["御幸", "みゆき"]},
    {"name": "元町", "reading": "もとまち", "zipCode": "443-0043", "variations": ["元"]},
    {"name": "八百富町", "reading": "やおとみちょう", "zipCode": "443-0055", "variations": ["八百富", "やおとみ"]}
  ],
  
  "facilities": [
    {"name": "ゆとりーな蒲郡", "category": "温泉・スポーツ施設", "reading": "ゆとりーながまごおり", "variations": ["ゆとりな", "ユトリーナ", "ゆとりーな"]},
    {"name": "寿楽荘", "category": "温泉施設", "reading": "じゅらくそう", "variations": ["じゅらく荘", "寿楽"]},
    {"name": "蒲郡市民病院", "category": "医療施設", "reading": "がまごおりしみんびょういん", "variations": ["市民病院", "蒲郡病院"]},
    {"name": "保健医療センター", "category": "保健施設", "reading": "ほけんいりょうせんたー", "variations": ["保健センター", "医療センター"]},
    {"name": "休日急病診療所", "category": "医療施設", "reading": "きゅうじつきゅうびょうしんりょうじょ", "variations": ["急病診療所", "休日診療所"]},
    {"name": "障がい者歯科診療所", "category": "医療施設", "reading": "しょうがいしゃしかしんりょうじょ", "variations": ["障害者歯科", "歯科診療所"]},
    {"name": "市民体育センター", "category": "スポーツ施設", "reading": "しみんたいいくせんたー", "variations": ["体育センター", "市民体育館"]},
    {"name": "こども家庭センター", "category": "子育て施設", "reading": "こどもかていせんたー", "variations": ["子ども家庭センター", "家庭センター"]},
    {"name": "ファミリー・サポート・センター", "category": "子育て施設", "reading": "ふぁみりーさぽーとせんたー", "variations": ["ファミサポ", "ファミリーサポート"]},
    {"name": "東部子育て支援センター", "category": "子育て施設", "reading": "とうぶこそだてしえんせんたー", "variations": ["東部支援センター", "東部子育て"]},
    {"name": "西部子育て支援センター", "category": "子育て施設", "reading": "せいぶこそだてしえんせんたー", "variations": ["西部支援センター", "西部子育て"]},
    {"name": "中央子育て支援センター", "category": "子育て施設", "reading": "ちゅうおうこそだてしえんせんたー", "variations": ["中央支援センター", "中央子育て"]},
    {"name": "蒲郡公民館", "category": "公民館", "reading": "がまごおりこうみんかん", "variations": ["蒲郡公民", "市公民館"]},
    {"name": "小江公民館", "category": "公民館", "reading": "こえこうみんかん", "variations": ["小江公民", "こえ公民館"]},
    {"name": "竹島水族館", "category": "観光施設", "reading": "たけしますいぞくかん", "variations": ["竹島水族", "たけすい"]},
    {"name": "ラグーナテンボス", "category": "観光施設", "reading": "らぐーなてんぼす", "variations": ["ラグーナ", "ラグナシア", "Laguna"]},
    {"name": "宇連ダム", "category": "水源施設", "reading": "うれだむ", "variations": ["宇連", "うれ"]},
    {"name": "蒲郡市役所", "category": "行政施設", "reading": "がまごおりしやくしょ", "variations": ["市役所", "市庁舎"]},
    {"name": "議会事務局", "category": "議会施設", "reading": "ぎかいじむきょく", "variations": ["事務局", "議会局"]}
  ],
  
  "committees": [
    {"name": "総務委員会", "type": "常任委員会", "reading": "そうむいいんかい", "chairperson": "鈴木将浩", "variations": ["総務委", "総務"]},
    {"name": "経済委員会", "type": "常任委員会", "reading": "けいざいいいんかい", "chairperson": "伊藤享佑", "variations": ["経済委", "経済"]},
    {"name": "文教委員会", "type": "常任委員会", "reading": "ぶんきょういいんかい", "chairperson": "青山義明", "variations": ["文教委", "文教"]},
    {"name": "議会運営委員会", "type": "議会運営", "reading": "ぎかいうんえいいいんかい", "chairperson": "鈴木基夫", "variations": ["議運", "運営委員会"]},
    {"name": "予算審査特別委員会", "type": "特別委員会", "reading": "よさんしんさとくべついいんかい", "variations": ["予算審査", "予算特別委"]},
    {"name": "決算審査特別委員会", "type": "特別委員会", "reading": "けっさんしんさとくべついいんかい", "variations": ["決算審査", "決算特別委"]}
  ],
  
  "factions": [
    {"name": "自由民主党・無所属の会", "shortName": "自民・無所属", "members": 9, "reading": "じゆうみんしゅとう・むしょぞくのかい", "variations": ["自民党", "自由民主党", "自民"]},
    {"name": "蒲郡市政クラブ", "shortName": "市政クラブ", "members": 4, "reading": "がまごおりしせいくらぶ", "variations": ["市政", "市政クラブ"]},
    {"name": "蒲郡自由クラブ", "shortName": "自由クラブ", "members": 4, "reading": "がまごおりじゆうくらぶ", "variations": ["自由", "自由クラブ"]},
    {"name": "公明党蒲郡市議団", "shortName": "公明党", "members": 2, "reading": "こうめいとうがまごおりしぎだん", "variations": ["公明", "公明党"]},
    {"name": "日本共産党蒲郡市議団", "shortName": "共産党", "members": 1, "reading": "にほんきょうさんとうがまごおりしぎだん", "variations": ["共産党", "共産"]}
  ],
  
  "meetingTypes": [
    {"name": "定例会", "type": "regular", "reading": "ていれいかい", "description": "年4回（3月、6月、9月、12月）開催される定期的な議会", "variations": ["定例", "定例議会"]},
    {"name": "臨時会", "type": "extraordinary", "reading": "りんじかい", "description": "必要に応じて招集される臨時の議会", "variations": ["臨時", "臨時議会"]},
    {"name": "本会議", "type": "plenary", "reading": "ほんかいぎ", "description": "全議員が出席する議会の会議", "variations": ["本会"]},
    {"name": "委員会", "type": "committee", "reading": "いいんかい", "description": "専門的な審査を行う小規模な会議", "variations": ["委員会審査"]}
  ],
  
  "politicalTerms": [
    {"term": "議案", "reading": "ぎあん", "description": "議会に提出される案件", "variations": ["議案第", "第○号議案"]},
    {"term": "補正予算", "reading": "ほせいよさん", "description": "当初予算を修正する予算", "variations": ["補正", "予算補正"]},
    {"term": "一般質問", "reading": "いっぱんしつもん", "description": "議員が市政全般について質問すること", "variations": ["質問", "一般質疑"]},
    {"term": "採決", "reading": "さいけつ", "description": "議案に対して賛否を決めること", "variations": ["採決まで", "採決から"]},
    {"term": "諸般の報告", "reading": "しょはんのほうこく", "description": "議会開始時に行われる各種報告", "variations": ["諸般報告", "報告"]},
    {"term": "開会", "reading": "かいかい", "description": "議会を開始すること", "variations": ["開会式", "開会から"]},
    {"term": "閉会", "reading": "へいかい", "description": "議会を終了すること", "variations": ["閉会式", "閉会まで"]},
    {"term": "節水対策", "reading": "せっすいたいさく", "description": "水不足に対応するための対策", "variations": ["節水", "水対策"]},
    {"term": "物価高騰", "reading": "ぶっかこうとう", "description": "物価が上昇すること", "variations": ["物価上昇", "高騰"]},
    {"term": "市長提案", "reading": "しちょうていあん", "description": "市長が提出する議案", "variations": ["市長案", "提案"]},
    {"term": "議員提案", "reading": "ぎいんていあん", "description": "議員が提出する議案", "variations": ["議員案", "議員発議"]},
    {"term": "請願", "reading": "せいがん", "description": "市民が議会に要望を提出すること", "variations": ["請願書", "請願提出"]},
    {"term": "陳情", "reading": "ちんじょう", "description": "市民が議会に意見を提出すること", "variations": ["陳情書", "陳情提出"]},
    {"term": "議会運営", "reading": "ぎかいうんえい", "description": "議会の運営に関すること", "variations": ["運営", "議運"]},
    {"term": "議会だより", "reading": "ぎかいだより", "description": "議会の活動を市民に伝える広報誌", "variations": ["議会広報", "だより"]},
    {"term": "会議録", "reading": "かいぎろく", "description": "議会の議事内容を記録したもの", "variations": ["議事録", "会議記録"]},
    {"term": "議会傍聴", "reading": "ぎかいぼうちょう", "description": "市民が議会を見学すること", "variations": ["傍聴", "傍聴席"]},
    {"term": "政務活動費", "reading": "せいむかつどうひ", "description": "議員の調査研究活動のための費用", "variations": ["政活費", "政務費"]},
    {"term": "議員報酬", "reading": "ぎいんほうしゅう", "description": "議員に支払われる報酬", "variations": ["報酬", "議員給与"]},
    {"term": "監査委員", "reading": "かんさいいん", "description": "市の財務や事務を監査する委員", "variations": ["監査", "監査役"]}
  ],
  
  "administrativeTerms": [
    {"term": "市政", "reading": "しせい", "description": "市の政治・行政", "variations": ["市の政治", "行政"]},
    {"term": "市民", "reading": "しみん", "description": "蒲郡市に住む人々", "variations": ["住民", "市民の皆様"]},
    {"term": "市長", "reading": "しちょう", "description": "蒲郡市の首長", "variations": ["首長", "市長"]},
    {"term": "副市長", "reading": "ふくしちょう", "description": "市長を補佐する役職", "variations": ["副市長"]},
    {"term": "市役所", "reading": "しやくしょ", "description": "蒲郡市の行政機関", "variations": ["役所", "市庁舎"]},
    {"term": "条例", "reading": "じょうれい", "description": "地方自治体が制定する法規", "variations": ["市条例", "条例案"]},
    {"term": "規則", "reading": "きそく", "description": "条例を実施するための細則", "variations": ["市規則", "規則案"]},
    {"term": "要綱", "reading": "ようこう", "description": "行政の運用基準", "variations": ["実施要綱", "要綱案"]},
    {"term": "計画", "reading": "けいかく", "description": "市の施策の方針を示すもの", "variations": ["総合計画", "基本計画"]},
    {"term": "財政", "reading": "ざいせい", "description": "市の収入と支出", "variations": ["市財政", "財政状況"]},
    {"term": "予算", "reading": "よさん", "description": "市の収入と支出の計画", "variations": ["当初予算", "予算案"]},
    {"term": "決算", "reading": "けっさん", "description": "実際の収入と支出の結果", "variations": ["決算報告", "決算書"]},
    {"term": "事業", "reading": "じぎょう", "description": "市が実施する施策", "variations": ["市事業", "事業計画"]},
    {"term": "施策", "reading": "しさく", "description": "市の政策", "variations": ["市施策", "施策案"]},
    {"term": "福祉", "reading": "ふくし", "description": "市民の生活を支援すること", "variations": ["社会福祉", "福祉事業"]},
    {"term": "教育", "reading": "きょういく", "description": "学校教育や生涯学習", "variations": ["学校教育", "教育委員会"]},
    {"term": "防災", "reading": "ぼうさい", "description": "災害に備えること", "variations": ["防災対策", "防災計画"]},
    {"term": "環境", "reading": "かんきょう", "description": "自然環境や生活環境", "variations": ["環境保全", "環境対策"]},
    {"term": "産業", "reading": "さんぎょう", "description": "市内の経済活動", "variations": ["産業振興", "産業政策"]},
    {"term": "観光", "reading": "かんこう", "description": "観光事業", "variations": ["観光振興", "観光政策"]}
  ],

  "cityExecutives": [
    {
      "position": "市長",
      "name": "鈴木寿明",
      "reading": "すずき ひさあき",
      "birthDate": "1962-09-14",
      "termStart": "2023-11-07",
      "termNumber": 2,
      "background": "蒲郡東高校卒業、金沢大学教育学部卒業、株式会社新鈴木新聞舗 代表取締役",
      "variations": ["鈴木市長", "鈴木寿明市長", "すずき市長"]
    },
    {
      "position": "副市長",
      "name": "贄年宏",
      "reading": "にえ としひろ",
      "termStart": "2025-04-01",
      "termNumber": 1,
      "variations": ["贄副市長", "にえ副市長", "贄年宏副市長"]
    }
  ]
}
